STARLINK-1605_new
1 16123C 20057G   21326.06235870  .00002822  00000-0  18908-3 0  3262
2 16123  53.0532 118.4618 0001528  81.0183 309.6635 15.06389836    14
STARLINK-1605_old
1 26123C 20057G   21325.17850051 -.00009184  00000-0 -61550-3 0  3257
2 26123  53.0530 122.4294 0001609  80.0993 194.7569 15.06399013    12
